{
    "links": {
        "self": "http://www.neowsapp.com/rest/v1/neo/3825023?api_key=iIulBulltgU6a56xZRHN4H3l9WmuAYTsLGpBGhQ2"
    },
    "id": "3825023",
    "neo_reference_id": "3825023",
    "name": "(2018 KO2)",
    "designation": "2018 KO2",
    "nasa_jpl_url": "http://ssd.jpl.nasa.gov/sbdb.cgi?sstr=3825023",
    "absolute_magnitude_h": 23.5,
    "estimated_diameter": {
        "kilometers": {
            "estimated_diameter_min": 0.0530340723,
            "estimated_diameter_max": 0.1185877909
        },
        "meters": {
            "estimated_diameter_min": 53.0340723319,
            "estimated_diameter_max": 118.5877908577
        },
        "miles": {
            "estimated_diameter_min": 0.0329538346,
            "estimated_diameter_max": 0.0736870142
        },
        "feet": {
            "estimated_diameter_min": 173.9963058693,
            "estimated_diameter_max": 389.0675677576
        }
    },
    "is_potentially_hazardous_asteroid": false,
    "close_approach_data": [
        {
            "close_approach_date": "2018-05-28",
            "close_approach_date_full": "2018-May-28 06:41",
            "epoch_date_close_approach": 1527489660000,
            "relative_velocity": {
                "kilometers_per_second": "20.0476606779",
                "kilometers_per_hour": "72171.5784402784",
                "miles_per_hour": "44844.6121702941"
            },
            "miss_distance": {
                "astronomical": "0.0986485565",
                "lunar": "38.3742884785",
                "kilometers": "14757613.930974655",
                "miles": "9169956.080194039"
            },
            "orbiting_body": "Earth"
        },
        {
            "close_approach_date": "2018-11-19",
            "close_approach_date_full": "2018-Nov-19 09:24",
            "epoch_date_close_approach": 1542619440000,
            "relative_velocity": {
                "kilometers_per_second": "19.8172094609",
                "kilometers_per_hour": "71341.9540594106",
                "miles_per_hour": "44329.1158431932"
            },
            "miss_distance": {
                "astronomical": "0.2702211388",
                "lunar": "105.1160229932",
                "kilometers": "40424506.793454356",
                "miles": "25118623.7553918728"
            },
            "orbiting_body": "Earth"
        }
    ],
    "orbital_data": {
        "orbit_id": "2",
        "orbit_determination_date": "2018-06-09 06:34:33",
        "first_observation_date": "2018-05-22",
        "last_observation_date": "2018-06-08",
        "data_arc_in_days": 17,
        "observations_used": 26,
        "orbit_uncertainty": "8",
        "minimum_orbit_intersection": ".0786094",
        "jupiter_tisserand_invariant": "4.942",
        "epoch_osculation": "2458262.5",
        "eccentricity": ".2177532900845495",
        "semi_major_axis": "1.238923922186778",
        "inclination": "38.82189356193363",
        "ascending_node_longitude": "63.56170336828347",
        "orbital_period": "503.6923848900715",
        "perihelion_distance": ".9691441619661528",
        "perihelion_argument": "249.1647455302311",
        "aphelion_distance": "1.508703682407403",
        "perihelion_time": "2458332.815333119139",
        "mean_anomaly": "309.7440884908066",
        "mean_motion": ".7147219429941716",
        "equinox": "J2000",
        "orbit_class": {
            "orbit_class_type": "APO",
            "orbit_class_description": "Near-Earth asteroid orbits which cross the Earth’s orbit similar to that of 1862 Apollo",
            "orbit_class_range": "a (semi-major axis) > 1.0 AU; q (perihelion) < 1.017 AU"
        }
    },
    "is_sentry_object": false
}